[{"OBJECT_NAME":"HYLAS 4","OBJECT_ID":"2018-033B","EPOCH":"2026-03-04T03:36:32.342112","MEAN_MOTION":1.0026899,"ECCENTRICITY":0.0001265,"INCLINATION":0.0215,"RA_OF_ASC_NODE":103.9276,"ARG_OF_PERICENTER":263.4814,"MEAN_ANOMALY":175.0599,"EPHEMERIS_TYPE":0,"CLASSIFICATION_TYPE":"U","NORAD_CAT_ID":43272,"ELEMENT_SET_NO":999,"REV_AT_EPOCH":2901,"BSTAR":0,"MEAN_MOTION_DOT":-2.47e-6,"MEAN_MOTION_DDOT":0},{"OBJECT_NAME":"IRNSS-1I","OBJECT_ID":"2018-035A","EPOCH":"2026-03-04T02:19:09.759936","MEAN_MOTION":1.00277479,"ECCENTRICITY":0.0019068,"INCLINATION":28.9289,"RA_OF_ASC_NODE":75.819,"ARG_OF_PERICENTER":190.3573,"MEAN_ANOMALY":345.5673,"EPHEMERIS_TYPE":0,"CLASSIFICATION_TYPE":"U","NORAD_CAT_ID":43286,"ELEMENT_SET_NO":999,"REV_AT_EPOCH":2902,"BSTAR":0,"MEAN_MOTION_DOT":8.5e-7,"MEAN_MOTION_DDOT":0},{"OBJECT_NAME":"USA 283","OBJECT_ID":"2018-036A","EPOCH":"2026-03-03T19:50:47.883840","MEAN_MOTION":1.00271212,"ECCENTRICITY":7.78e-5,"INCLINATION":0.0172,"RA_OF_ASC_NODE":128.2274,"ARG_OF_PERICENTER":251.2663,"MEAN_ANOMALY":213.8636,"EPHEMERIS_TYPE":0,"CLASSIFICATION_TYPE":"U","NORAD_CAT_ID":43339,"ELEMENT_SET_NO":999,"REV_AT_EPOCH":2423,"BSTAR":0,"MEAN_MOTION_DOT":-3.31e-6,"MEAN_MOTION_DDOT":0},{"OBJECT_NAME":"COSMOS 2526","OBJECT_ID":"2018-037A","EPOCH":"2026-03-04T00:57:10.122336","MEAN_MOTION":1.00267773,"ECCENTRICITY":3.14e-5,"INCLINATION":0.0252,"RA_OF_ASC_NODE":109.8514,"ARG_OF_PERICENTER":225.8295,"MEAN_ANOMALY":328.4578,"EPHEMERIS_TYPE":0,"CLASSIFICATION_TYPE":"U","NORAD_CAT_ID":43432,"ELEMENT_SET_NO":999,"REV_AT_EPOCH":2890,"BSTAR":0,"MEAN_MOTION_DOT":-3.58e-6,"MEAN_MOTION_DDOT":0},{"OBJECT_NAME":"APSTAR-6C","OBJECT_ID":"2018-041A","EPOCH":"2026-03-03T23:16:13.728576","MEAN_MOTION":1.00272755,"ECCENTRICITY":0.0003154,"INCLINATION":0.0524,"RA_OF_ASC_NODE":345.0872,"ARG_OF_PERICENTER":355.6633,"MEAN_ANOMALY":304.0292,"EPHEMERIS_TYPE":0,"CLASSIFICATION_TYPE":"U","NORAD_CAT_ID":43450,"ELEMENT_SET_NO":999,"REV_AT_EPOCH":2875,"BSTAR":0,"MEAN_MOTION_DOT":-3.31e-6,"MEAN_MOTION_DDOT":0},{"OBJECT_NAME":"BANGABANDHUSAT-1","OBJECT_ID":"2018-044A","EPOCH":"2026-03-03T23:11:59.133696","MEAN_MOTION":1.00270285,"ECCENTRICITY":0.0002622,"INCLINATION":0.0109,"RA_OF_ASC_NODE":175.2138,"ARG_OF_PERICENTER":177.6452,"MEAN_ANOMALY":275.937,"EPHEMERIS_TYPE":0,"CLASSIFICATION_TYPE":"U","NORAD_CAT_ID":43463,"ELEMENT_SET_NO":999,"REV_AT_EPOCH":2865,"BSTAR":0,"MEAN_MOTION_DOT":-3.76e-6,"MEAN_MOTION_DDOT":0},{"OBJECT_NAME":"SES-12","OBJECT_ID":"2018-049A","EPOCH":"2026-03-04T03:59:38.679360","MEAN_MOTION":1.00268956,"ECCENTRICITY":0.0002089,"INCLINATION":0.0188,"RA_OF_ASC_NODE":120.267,"ARG_OF_PERICENTER":184.2983,"MEAN_ANOMALY":12.2805,"EPHEMERIS_TYPE":0,"CLASSIFICATION_TYPE":"U","NORAD_CAT_ID":43488,"ELEMENT_SET_NO":999,"REV_AT_EPOCH":2836,"BSTAR":0,"MEAN_MOTION_DOT":0,"MEAN_MOTION_DDOT":0},{"OBJECT_NAME":"FENGYUN 2H","OBJECT_ID":"2018-050A","EPOCH":"2026-03-04T02:25:54.115392","MEAN_MOTION":1.00272888,"ECCENTRICITY":0.0001718,"INCLINATION":2.7598,"RA_OF_ASC_NODE":80.3634,"ARG_OF_PERICENTER":173.954,"MEAN_ANOMALY":23.0784,"EPHEMERIS_TYPE":0,"CLASSIFICATION_TYPE":"U","NORAD_CAT_ID":43491,"ELEMENT_SET_NO":999,"REV_AT_EPOCH":2838,"BSTAR":0,"MEAN_MOTION_DOT":-1.39e-6,"MEAN_MOTION_DDOT":0},{"OBJECT_NAME":"BEIDOU-2 IGSO-7","OBJECT_ID":"2018-057A","EPOCH":"2026-02-25T17:45:22.620960","MEAN_MOTION":1.00284731,"ECCENTRICITY":0.00999628,"INCLINATION":55.1859,"RA_OF_ASC_NODE":164.0342,"ARG_OF_PERICENTER":236.5988,"MEAN_ANOMALY":133.5173,"EPHEMERIS_TYPE":0,"CLASSIFICATION_TYPE":"U","NORAD_CAT_ID":43539,"ELEMENT_SET_NO":999,"REV_AT_EPOCH":2801,"BSTAR":0,"MEAN_MOTION_DOT":-1.61e-6,"MEAN_MOTION_DDOT":0},{"OBJECT_NAME":"TELSTAR 19V","OBJECT_ID":"2018-059A","EPOCH":"2026-03-04T03:28:03.154944","MEAN_MOTION":1.0027202,"ECCENTRICITY":5.93e-5,"INCLINATION":0.0201,"RA_OF_ASC_NODE":169.6505,"ARG_OF_PERICENTER":253.965,"MEAN_ANOMALY":87.2796,"EPHEMERIS_TYPE":0,"CLASSIFICATION_TYPE":"U","NORAD_CAT_ID":43562,"ELEMENT_SET_NO":999,"REV_AT_EPOCH":2809,"BSTAR":0,"MEAN_MOTION_DOT":-2.92e-6,"MEAN_MOTION_DDOT":0},{"OBJECT_NAME":"TELKOM 4 (MERAH PUTIH)","OBJECT_ID":"2018-064A","EPOCH":"2026-03-04T00:51:33.159744","MEAN_MOTION":1.00270746,"ECCENTRICITY":0.0001669,"INCLINATION":0.0071,"RA_OF_ASC_NODE":140.8978,"ARG_OF_PERICENTER":238.034,"MEAN_ANOMALY":263.7299,"EPHEMERIS_TYPE":0,"CLASSIFICATION_TYPE":"U","NORAD_CAT_ID":43587,"ELEMENT_SET_NO":999,"REV_AT_EPOCH":2782,"BSTAR":0,"MEAN_MOTION_DOT":-3.57e-6,"MEAN_MOTION_DDOT":0},{"OBJECT_NAME":"TELSTAR 18V","OBJECT_ID":"2018-069A","EPOCH":"2026-03-03T23:17:21.120576","MEAN_MOTION":1.00271391,"ECCENTRICITY":0.0002083,"INCLINATION":0.0174,"RA_OF_ASC_NODE":228.2832,"ARG_OF_PERICENTER":114.1403,"MEAN_ANOMALY":306.6322,"EPHEMERIS_TYPE":0,"CLASSIFICATION_TYPE":"U","NORAD_CAT_ID":43611,"ELEMENT_SET_NO":999,"REV_AT_EPOCH":2757,"BSTAR":0,"MEAN_MOTION_DOT":-3.07e-6,"MEAN_MOTION_DDOT":0},{"OBJECT_NAME":"AZERSPACE 2 (IS-38)","OBJECT_ID":"2018-074A","EPOCH":"2026-03-04T02:16:17.535360","MEAN_MOTION":1.00270354,"ECCENTRICITY":0.0001459,"INCLINATION":0.0253,"RA_OF_ASC_NODE":148.0087,"ARG_OF_PERICENTER":207.5851,"MEAN_ANOMALY":245.4486,"EPHEMERIS_TYPE":0,"CLASSIFICATION_TYPE":"U","NORAD_CAT_ID":43632,"ELEMENT_SET_NO":999,"REV_AT_EPOCH":2739,"BSTAR":0,"MEAN_MOTION_DOT":0,"MEAN_MOTION_DDOT":0},{"OBJECT_NAME":"HORIZONS-3E","OBJECT_ID":"2018-074B","EPOCH":"2026-03-04T02:51:36.650016","MEAN_MOTION":1.00271713,"ECCENTRICITY":5.89e-5,"INCLINATION":0.0145,"RA_OF_ASC_NODE":327.1223,"ARG_OF_PERICENTER":5.1214,"MEAN_ANOMALY":41.4976,"EPHEMERIS_TYPE":0,"CLASSIFICATION_TYPE":"U","NORAD_CAT_ID":43633,"ELEMENT_SET_NO":999,"REV_AT_EPOCH":2728,"BSTAR":0,"MEAN_MOTION_DOT":-4.4e-7,"MEAN_MOTION_DDOT":0},{"OBJECT_NAME":"AEHF-4 (USA 288)","OBJECT_ID":"2018-079A","EPOCH":"2026-03-04T03:44:38.901120","MEAN_MOTION":1.00273314,"ECCENTRICITY":0.0064087,"INCLINATION":1.4229,"RA_OF_ASC_NODE":354.6593,"ARG_OF_PERICENTER":359.115,"MEAN_ANOMALY":156.7713,"EPHEMERIS_TYPE":0,"CLASSIFICATION_TYPE":"U","NORAD_CAT_ID":43651,"ELEMENT_SET_NO":999,"REV_AT_EPOCH":2724,"BSTAR":0,"MEAN_MOTION_DOT":-2.87e-6,"MEAN_MOTION_DDOT":0},{"OBJECT_NAME":"BEIDOU-3 G1","OBJECT_ID":"2018-085A","EPOCH":"2026-03-04T05:00:51.808608","MEAN_MOTION":1.00268563,"ECCENTRICITY":0.0001342,"INCLINATION":2.8102,"RA_OF_ASC_NODE":100.3911,"ARG_OF_PERICENTER":24.9069,"MEAN_ANOMALY":251.9134,"EPHEMERIS_TYPE":0,"CLASSIFICATION_TYPE":"U","NORAD_CAT_ID":43683,"ELEMENT_SET_NO":999,"REV_AT_EPOCH":2700,"BSTAR":0,"MEAN_MOTION_DOT":-2.9e-6,"MEAN_MOTION_DDOT":0},{"OBJECT_NAME":"GSAT-29","OBJECT_ID":"2018-089A","EPOCH":"2026-03-04T02:19:02.273376","MEAN_MOTION":1.00271671,"ECCENTRICITY":0.00018,"INCLINATION":0.0587,"RA_OF_ASC_NODE":273.7699,"ARG_OF_PERICENTER":53.1441,"MEAN_ANOMALY":284.7046,"EPHEMERIS_TYPE":0,"CLASSIFICATION_TYPE":"U","NORAD_CAT_ID":43698,"ELEMENT_SET_NO":999,"REV_AT_EPOCH":2673,"BSTAR":0,"MEAN_MOTION_DOT":7.3e-7,"MEAN_MOTION_DDOT":0}]
